{
  "type": "FeatureCollection",
  "features": [
    {
      "type": "Feature",
      "properties": {
        "norad_id": 25590,
        "name": "COSMOS 2361",
        "group": "musson",
        "lat": 49.4426494098932,
        "lon": -4.409120132531885,
        "alt_km": 998.2933959794955,
        "timestamp": "2025-12-08T10:52:03.217316+00:00",
        "meta_object_name": "COSMOS 2361",
        "meta_object_id": "1998-076A",
        "meta_epoch": "2025-12-07T19:44:07.754208",
        "meta_mean_motion": 13.73216709,
        "meta_eccentricity": 0.00300756,
        "meta_inclination": 82.9338,
        "meta_ra_of_asc_node": 347.7238,
        "meta_arg_of_pericenter": 279.8883,
        "meta_mean_anomaly": 254.6926,
        "meta_ephemeris_type": 0,
        "meta_classification_type": "U",
        "meta_norad_cat_id": 25590,
        "meta_element_set_no": 999,
        "meta_rev_at_epoch": 35043,
        "meta_bstar": 8.6430495e-05,
        "meta_mean_motion_dot": 9.5e-07,
        "meta_mean_motion_ddot": 0,
        "tle_line1": "1 25590U 98076A   25341.82231197  .00000095  00000+0  86430-4 0  9997",
        "tle_line2": "2 25590  82.9338 347.7238 0030075 279.8883 254.6926 13.73216709350438"
      },
      "geometry": {
        "type": "Point",
        "coordinates": [
          -4.409120132531885,
          49.4426494098932
        ]
      }
    },
    {
      "type": "Feature",
      "properties": {
        "norad_id": 26818,
        "name": "COSMOS 2378",
        "group": "musson",
        "lat": 70.85801472449096,
        "lon": 161.94712496535766,
        "alt_km": 985.655460754977,
        "timestamp": "2025-12-08T10:52:03.217338+00:00",
        "meta_object_name": "COSMOS 2378",
        "meta_object_id": "2001-023A",
        "meta_epoch": "2025-12-07T19:27:21.426624",
        "meta_mean_motion": 13.74141369,
        "meta_eccentricity": 0.00321313,
        "meta_inclination": 82.9274,
        "meta_ra_of_asc_node": 3.38,
        "meta_arg_of_pericenter": 218.8795,
        "meta_mean_anomaly": 314.3967,
        "meta_ephemeris_type": 0,
        "meta_classification_type": "U",
        "meta_norad_cat_id": 26818,
        "meta_element_set_no": 999,
        "meta_rev_at_epoch": 22855,
        "meta_bstar": 5.9722739e-05,
        "meta_mean_motion_dot": 7.1e-07,
        "meta_mean_motion_ddot": 0,
        "tle_line1": "1 26818U 01023A   25341.81066466  .00000071  00000+0  59723-4 0  9990",
        "tle_line2": "2 26818  82.9274   3.3800 0032131 218.8795 314.3967 13.74141369228557"
      },
      "geometry": {
        "type": "Point",
        "coordinates": [
          161.94712496535766,
          70.85801472449096
        ]
      }
    },
    {
      "type": "Feature",
      "properties": {
        "norad_id": 27436,
        "name": "COSMOS 2389",
        "group": "musson",
        "lat": -60.22038810788714,
        "lon": -62.330672888819315,
        "alt_km": 1012.2657737392383,
        "timestamp": "2025-12-08T10:52:03.217352+00:00",
        "meta_object_name": "COSMOS 2389",
        "meta_object_id": "2002-026A",
        "meta_epoch": "2025-12-07T23:15:21.608640",
        "meta_mean_motion": 13.75153874,
        "meta_eccentricity": 0.0047718,
        "meta_inclination": 82.9498,
        "meta_ra_of_asc_node": 310.5167,
        "meta_arg_of_pericenter": 73.7069,
        "meta_mean_anomaly": 351.9582,
        "meta_ephemeris_type": 0,
        "meta_classification_type": "U",
        "meta_norad_cat_id": 27436,
        "meta_element_set_no": 999,
        "meta_rev_at_epoch": 18083,
        "meta_bstar": 7.9498997e-05,
        "meta_mean_motion_dot": 9.2e-07,
        "meta_mean_motion_ddot": 0,
        "tle_line1": "1 27436U 02026A   25341.96900010  .00000092  00000+0  79499-4 0  9994",
        "tle_line2": "2 27436  82.9498 310.5167 0047718  73.7069 351.9582 13.75153874180833"
      },
      "geometry": {
        "type": "Point",
        "coordinates": [
          -62.330672888819315,
          -60.22038810788714
        ]
      }
    },
    {
      "type": "Feature",
      "properties": {
        "norad_id": 27818,
        "name": "COSMOS 2398",
        "group": "musson",
        "lat": -64.26487110907003,
        "lon": -99.02231381048931,
        "alt_km": 1021.8682718090422,
        "timestamp": "2025-12-08T10:52:03.217363+00:00",
        "meta_object_name": "COSMOS 2398",
        "meta_object_id": "2003-023A",
        "meta_epoch": "2025-12-07T21:28:54.988896",
        "meta_mean_motion": 13.7238491,
        "meta_eccentricity": 0.00324074,
        "meta_inclination": 82.9481,
        "meta_ra_of_asc_node": 276.2684,
        "meta_arg_of_pericenter": 124.7774,
        "meta_mean_anomaly": 296.0498,
        "meta_ephemeris_type": 0,
        "meta_classification_type": "U",
        "meta_norad_cat_id": 27818,
        "meta_element_set_no": 999,
        "meta_rev_at_epoch": 12750,
        "meta_bstar": 8.1778361e-05,
        "meta_mean_motion_dot": 9e-07,
        "meta_mean_motion_ddot": 0,
        "tle_line1": "1 27818U 03023A   25341.89508089  .00000090  00000+0  81778-4 0  9999",
        "tle_line2": "2 27818  82.9481 276.2684 0032407 124.7774 296.0498 13.72384910127504"
      },
      "geometry": {
        "type": "Point",
        "coordinates": [
          -99.02231381048931,
          -64.26487110907003
        ]
      }
    },
    {
      "type": "Feature",
      "properties": {
        "norad_id": 28380,
        "name": "COSMOS 2407",
        "group": "musson",
        "lat": 68.84218134036992,
        "lon": -125.31817455237416,
        "alt_km": 940.6114535053248,
        "timestamp": "2025-12-08T10:52:03.217374+00:00",
        "meta_object_name": "COSMOS 2407",
        "meta_object_id": "2004-028A",
        "meta_epoch": "2025-12-07T22:22:07.842144",
        "meta_mean_motion": 13.76312885,
        "meta_eccentricity": 0.00404618,
        "meta_inclination": 82.9614,
        "meta_ra_of_asc_node": 216.4521,
        "meta_arg_of_pericenter": 67.8849,
        "meta_mean_anomaly": 303.2551,
        "meta_ephemeris_type": 0,
        "meta_classification_type": "U",
        "meta_norad_cat_id": 28380,
        "meta_element_set_no": 999,
        "meta_rev_at_epoch": 7357,
        "meta_bstar": 9.4958738e-05,
        "meta_mean_motion_dot": 1.09e-06,
        "meta_mean_motion_ddot": 0,
        "tle_line1": "1 28380U 04028A   25341.93203521  .00000109  00000+0  94959-4 0  9994",
        "tle_line2": "2 28380  82.9614 216.4521 0040461  67.8849 303.2551 13.76312885 73576"
      },
      "geometry": {
        "type": "Point",
        "coordinates": [
          -125.31817455237416,
          68.84218134036992
        ]
      }
    },
    {
      "type": "Feature",
      "properties": {
        "norad_id": 28521,
        "name": "COSMOS 2414",
        "group": "musson",
        "lat": 24.837092218829113,
        "lon": 4.617955162279307,
        "alt_km": 905.5708175732789,
        "timestamp": "2025-12-08T10:52:03.217385+00:00",
        "meta_object_name": "COSMOS 2414",
        "meta_object_id": "2005-002A",
        "meta_epoch": "2025-12-07T22:00:48.471552",
        "meta_mean_motion": 13.87902067,
        "meta_eccentricity": 0.00406134,
        "meta_inclination": 82.9497,
        "meta_ra_of_asc_node": 188.3066,
        "meta_arg_of_pericenter": 153.2375,
        "meta_mean_anomaly": 207.0897,
        "meta_ephemeris_type": 0,
        "meta_classification_type": "U",
        "meta_norad_cat_id": 28521,
        "meta_element_set_no": 999,
        "meta_rev_at_epoch": 5728,
        "meta_bstar": 8.2731538e-05,
        "meta_mean_motion_dot": 1.15e-06,
        "meta_mean_motion_ddot": 0,
        "tle_line1": "1 28521U 05002A   25341.91722768  .00000115  00000+0  82732-4 0  9994",
        "tle_line2": "2 28521  82.9497 188.3066 0040613 153.2375 207.0897 13.87902067 57289"
      },
      "geometry": {
        "type": "Point",
        "coordinates": [
          4.617955162279307,
          24.837092218829113
        ]
      }
    },
    {
      "type": "Feature",
      "properties": {
        "norad_id": 32052,
        "name": "COSMOS 2429",
        "group": "musson",
        "lat": 53.49821871617438,
        "lon": 156.8852758082583,
        "alt_km": 969.1395736237873,
        "timestamp": "2025-12-08T10:52:03.217395+00:00",
        "meta_object_name": "COSMOS 2429",
        "meta_object_id": "2007-038A",
        "meta_epoch": "2025-12-07T23:47:02.326560",
        "meta_mean_motion": 13.75148646,
        "meta_eccentricity": 0.00394578,
        "meta_inclination": 82.9802,
        "meta_ra_of_asc_node": 346.8099,
        "meta_arg_of_pericenter": 50.7881,
        "meta_mean_anomaly": 309.6768,
        "meta_ephemeris_type": 0,
        "meta_classification_type": "U",
        "meta_norad_cat_id": 32052,
        "meta_element_set_no": 999,
        "meta_rev_at_epoch": 91537,
        "meta_bstar": 5.8930416e-05,
        "meta_mean_motion_dot": 7.2e-07,
        "meta_mean_motion_ddot": 0,
        "tle_line1": "1 32052U 07038A   25341.99099915  .00000072  00000+0  58930-4 0  9993",
        "tle_line2": "2 32052  82.9802 346.8099 0039457  50.7881 309.6768 13.75148646915378"
      },
      "geometry": {
        "type": "Point",
        "coordinates": [
          156.8852758082583,
          53.49821871617438
        ]
      }
    },
    {
      "type": "Feature",
      "properties": {
        "norad_id": 35635,
        "name": "COSMOS 2454",
        "group": "musson",
        "lat": 5.789458739302607,
        "lon": -8.823699007757266,
        "alt_km": 930.7195994584117,
        "timestamp": "2025-12-08T10:52:03.217408+00:00",
        "meta_object_name": "COSMOS 2454",
        "meta_object_id": "2009-039A",
        "meta_epoch": "2025-12-07T22:27:54.197280",
        "meta_mean_motion": 13.89927698,
        "meta_eccentricity": 0.00204858,
        "meta_inclination": 82.9556,
        "meta_ra_of_asc_node": 172.2864,
        "meta_arg_of_pericenter": 86.5601,
        "meta_mean_anomaly": 22.9478,
        "meta_ephemeris_type": 0,
        "meta_classification_type": "U",
        "meta_norad_cat_id": 35635,
        "meta_element_set_no": 999,
        "meta_rev_at_epoch": 83083,
        "meta_bstar": 6.5691095e-05,
        "meta_mean_motion_dot": 9.7e-07,
        "meta_mean_motion_ddot": 0,
        "tle_line1": "1 35635U 09039A   25341.93604395  .00000097  00000+0  65691-4 0  9993",
        "tle_line2": "2 35635  82.9556 172.2864 0020485  86.5601  22.9478 13.89927698830830"
      },
      "geometry": {
        "type": "Point",
        "coordinates": [
          -8.823699007757266,
          5.789458739302607
        ]
      }
    },
    {
      "type": "Feature",
      "properties": {
        "norad_id": 36519,
        "name": "COSMOS 2463",
        "group": "musson",
        "lat": 43.82289061528807,
        "lon": -156.94632248340878,
        "alt_km": 1014.7754281981206,
        "timestamp": "2025-12-08T10:52:03.217430+00:00",
        "meta_object_name": "COSMOS 2463",
        "meta_object_id": "2010-017A",
        "meta_epoch": "2025-12-07T21:02:54.757824",
        "meta_mean_motion": 13.71648583,
        "meta_eccentricity": 0.00349149,
        "meta_inclination": 82.9616,
        "meta_ra_of_asc_node": 30.2859,
        "meta_arg_of_pericenter": 302.0441,
        "meta_mean_anomaly": 232.1148,
        "meta_ephemeris_type": 0,
        "meta_classification_type": "U",
        "meta_norad_cat_id": 36519,
        "meta_element_set_no": 999,
        "meta_rev_at_epoch": 78170,
        "meta_bstar": 8.8538262e-05,
        "meta_mean_motion_dot": 9.5e-07,
        "meta_mean_motion_ddot": 0,
        "tle_line1": "1 36519U 10017A   25341.87702266  .00000095  00000+0  88538-4 0  9995",
        "tle_line2": "2 36519  82.9616  30.2859 0034914 302.0441 232.1148 13.71648583781700"
      },
      "geometry": {
        "type": "Point",
        "coordinates": [
          -156.94632248340878,
          43.82289061528807
        ]
      }
    }
  ]
}